[
  {
    "OBJECT_NAME": "STARLINK-34647",
    "OBJECT_ID": "25157A",
    "EPOCH": "2025-11-11T01:18:04.942368",
    "MEAN_MOTION": 15.39691571,
    "ECCENTRICITY": 0.0001097,
    "INCLINATION": 53.1566,
    "RA_OF_ASC_NODE": 182.8712,
    "ARG_OF_PERICENTER": 94.254,
    "MEAN_ANOMALY": 265.859,
    "EPHEMERIS_TYPE": 0,
    "CLASSIFICATION_TYPE": "U",
    "NORAD_CAT_ID": 64904,
    "ELEMENT_SET_NO": 999,
    "REV_AT_EPOCH": 1787,
    "BSTAR": 0.0014968000000000002,
    "MEAN_MOTION_DOT": 0.00060087,
    "MEAN_MOTION_DDOT": 0.0,
    "TLE_LINE1": "1 64904U 25157A   25315.05422387  .00060087  00000+0  14968-2 0  9990",
    "TLE_LINE2": "2 64904  53.1566 182.8712 0001097  94.2540 265.8590 15.39691571 17876",
    "COMMENT": "Grouped by shell and plane from TLE"
  },
  {
    "OBJECT_NAME": "STARLINK-34273",
    "OBJECT_ID": "25157B",
    "EPOCH": "2025-11-11T00:31:15.786336",
    "MEAN_MOTION": 15.39681403,
    "ECCENTRICITY": 7.41e-05,
    "INCLINATION": 53.1582,
    "RA_OF_ASC_NODE": 182.6635,
    "ARG_OF_PERICENTER": 216.2019,
    "MEAN_ANOMALY": 143.8936,
    "EPHEMERIS_TYPE": 0,
    "CLASSIFICATION_TYPE": "U",
    "NORAD_CAT_ID": 64905,
    "ELEMENT_SET_NO": 999,
    "REV_AT_EPOCH": 1788,
    "BSTAR": 0.0018644,
    "MEAN_MOTION_DOT": 0.00075064,
    "MEAN_MOTION_DDOT": 0.0,
    "TLE_LINE1": "1 64905U 25157B   25315.02171049  .00075064  00000+0  18644-2 0  9990",
    "TLE_LINE2": "2 64905  53.1582 182.6635 0000741 216.2019 143.8936 15.39681403 17882",
    "COMMENT": "Grouped by shell and plane from TLE"
  },
  {
    "OBJECT_NAME": "STARLINK-34713",
    "OBJECT_ID": "25157C",
    "EPOCH": "2025-11-11T00:58:00.922080",
    "MEAN_MOTION": 15.39661579,
    "ECCENTRICITY": 8.77e-05,
    "INCLINATION": 53.1595,
    "RA_OF_ASC_NODE": 182.7838,
    "ARG_OF_PERICENTER": 28.7535,
    "MEAN_ANOMALY": 331.3518,
    "EPHEMERIS_TYPE": 0,
    "CLASSIFICATION_TYPE": "U",
    "NORAD_CAT_ID": 64906,
    "ELEMENT_SET_NO": 999,
    "REV_AT_EPOCH": 1782,
    "BSTAR": 0.0013650000000000001,
    "MEAN_MOTION_DOT": 0.00054666,
    "MEAN_MOTION_DDOT": 0.0,
    "TLE_LINE1": "1 64906U 25157C   25315.04028845  .00054666  00000+0  13650-2 0  9995",
    "TLE_LINE2": "2 64906  53.1595 182.7838 0000877  28.7535 331.3518 15.39661579 17828",
    "COMMENT": "Grouped by shell and plane from TLE"
  },
  {
    "OBJECT_NAME": "STARLINK-34712",
    "OBJECT_ID": "25157D",
    "EPOCH": "2025-11-11T00:44:38.937408",
    "MEAN_MOTION": 15.39639835,
    "ECCENTRICITY": 0.0001903,
    "INCLINATION": 53.1535,
    "RA_OF_ASC_NODE": 182.7221,
    "ARG_OF_PERICENTER": 97.3757,
    "MEAN_ANOMALY": 262.7464,
    "EPHEMERIS_TYPE": 0,
    "CLASSIFICATION_TYPE": "U",
    "NORAD_CAT_ID": 64907,
    "ELEMENT_SET_NO": 999,
    "REV_AT_EPOCH": 1787,
    "BSTAR": 0.0015961,
    "MEAN_MOTION_DOT": 0.00064025,
    "MEAN_MOTION_DDOT": 0.0,
    "TLE_LINE1": "1 64907U 25157D   25315.03100622  .00064025  00000+0  15961-2 0  9996",
    "TLE_LINE2": "2 64907  53.1535 182.7221 0001903  97.3757 262.7464 15.39639835 17870",
    "COMMENT": "Grouped by shell and plane from TLE"
  },
  {
    "OBJECT_NAME": "STARLINK-34702",
    "OBJECT_ID": "25157E",
    "EPOCH": "2025-11-11T01:44:40.530912",
    "MEAN_MOTION": 15.3965363,
    "ECCENTRICITY": 9.99e-05,
    "INCLINATION": 53.1581,
    "RA_OF_ASC_NODE": 182.2699,
    "ARG_OF_PERICENTER": 197.3736,
    "MEAN_ANOMALY": 162.7235,
    "EPHEMERIS_TYPE": 0,
    "CLASSIFICATION_TYPE": "U",
    "NORAD_CAT_ID": 64908,
    "ELEMENT_SET_NO": 999,
    "REV_AT_EPOCH": 1788,
    "BSTAR": 0.0016148000000000002,
    "MEAN_MOTION_DOT": 0.00064812,
    "MEAN_MOTION_DDOT": 0.0,
    "TLE_LINE1": "1 64908U 25157E   25315.07269133  .00064812  00000+0  16148-2 0  9996",
    "TLE_LINE2": "2 64908  53.1581 182.2699 0000999 197.3736 162.7235 15.39653630 17883",
    "COMMENT": "Grouped by shell and plane from TLE"
  },
  {
    "OBJECT_NAME": "STARLINK-34687",
    "OBJECT_ID": "25157F",
    "EPOCH": "2025-11-11T03:04:47.260992",
    "MEAN_MOTION": 15.3967353,
    "ECCENTRICITY": 0.0001422,
    "INCLINATION": 53.1559,
    "RA_OF_ASC_NODE": 181.9049,
    "ARG_OF_PERICENTER": 136.2117,
    "MEAN_ANOMALY": 223.9001,
    "EPHEMERIS_TYPE": 0,
    "CLASSIFICATION_TYPE": "U",
    "NORAD_CAT_ID": 64909,
    "ELEMENT_SET_NO": 999,
    "REV_AT_EPOCH": 1784,
    "BSTAR": 0.001124,
    "MEAN_MOTION_DOT": 0.00044906,
    "MEAN_MOTION_DDOT": 0.0,
    "TLE_LINE1": "1 64909U 25157F   25315.12832478  .00044906  00000+0  11240-2 0  9991",
    "TLE_LINE2": "2 64909  53.1559 181.9049 0001422 136.2117 223.9001 15.39673530 17849",
    "COMMENT": "Grouped by shell and plane from TLE"
  },
  {
    "OBJECT_NAME": "STARLINK-34642",
    "OBJECT_ID": "25157G",
    "EPOCH": "2025-11-10T23:51:16.732224",
    "MEAN_MOTION": 15.39672573,
    "ECCENTRICITY": 0.000129,
    "INCLINATION": 53.1591,
    "RA_OF_ASC_NODE": 183.1989,
    "ARG_OF_PERICENTER": 207.7048,
    "MEAN_ANOMALY": 152.3888,
    "EPHEMERIS_TYPE": 0,
    "CLASSIFICATION_TYPE": "U",
    "NORAD_CAT_ID": 64910,
    "ELEMENT_SET_NO": 999,
    "REV_AT_EPOCH": 1786,
    "BSTAR": 0.001374,
    "MEAN_MOTION_DOT": 0.00055054,
    "MEAN_MOTION_DDOT": 0.0,
    "TLE_LINE1": "1 64910U 25157G   25314.99394366  .00055054  00000+0  13740-2 0  9999",
    "TLE_LINE2": "2 64910  53.1591 183.1989 0001290 207.7048 152.3888 15.39672573 17860",
    "COMMENT": "Grouped by shell and plane from TLE"
  },
  {
    "OBJECT_NAME": "STARLINK-34718",
    "OBJECT_ID": "25157H",
    "EPOCH": "2025-11-11T04:18:21.329856",
    "MEAN_MOTION": 15.39563067,
    "ECCENTRICITY": 0.0001503,
    "INCLINATION": 53.1566,
    "RA_OF_ASC_NODE": 182.2272,
    "ARG_OF_PERICENTER": 85.1892,
    "MEAN_ANOMALY": 274.9284,
    "EPHEMERIS_TYPE": 0,
    "CLASSIFICATION_TYPE": "U",
    "NORAD_CAT_ID": 64911,
    "ELEMENT_SET_NO": 999,
    "REV_AT_EPOCH": 1789,
    "BSTAR": 0.0019164000000000002,
    "MEAN_MOTION_DOT": 0.00076888,
    "MEAN_MOTION_DDOT": 0.0,
    "TLE_LINE1": "1 64911U 25157H   25315.17941354  .00076888  00000+0  19164-2 0  9990",
    "TLE_LINE2": "2 64911  53.1566 182.2272 0001503  85.1892 274.9284 15.39563067 17891",
    "COMMENT": "Grouped by shell and plane from TLE"
  },
  {
    "OBJECT_NAME": "STARLINK-34711",
    "OBJECT_ID": "25157J",
    "EPOCH": "2025-11-11T01:04:42.164544",
    "MEAN_MOTION": 15.39660611,
    "ECCENTRICITY": 2.97e-05,
    "INCLINATION": 53.1583,
    "RA_OF_ASC_NODE": 182.8107,
    "ARG_OF_PERICENTER": 40.5132,
    "MEAN_ANOMALY": 319.5895,
    "EPHEMERIS_TYPE": 0,
    "CLASSIFICATION_TYPE": "U",
    "NORAD_CAT_ID": 64912,
    "ELEMENT_SET_NO": 999,
    "REV_AT_EPOCH": 1787,
    "BSTAR": 0.0017729,
    "MEAN_MOTION_DOT": 0.00071275,
    "MEAN_MOTION_DDOT": 0.0,
    "TLE_LINE1": "1 64912U 25157J   25315.04493246  .00071275  00000+0  17729-2 0  9999",
    "TLE_LINE2": "2 64912  53.1583 182.8107 0000297  40.5132 319.5895 15.39660611 17870",
    "COMMENT": "Grouped by shell and plane from TLE"
  },
  {
    "OBJECT_NAME": "STARLINK-34659",
    "OBJECT_ID": "25157K",
    "EPOCH": "2025-11-10T15:30:28.473696",
    "MEAN_MOTION": 15.39652356,
    "ECCENTRICITY": 0.0001528,
    "INCLINATION": 53.1563,
    "RA_OF_ASC_NODE": 184.5858,
    "ARG_OF_PERICENTER": 98.1491,
    "MEAN_ANOMALY": 261.9687,
    "EPHEMERIS_TYPE": 0,
    "CLASSIFICATION_TYPE": "U",
    "NORAD_CAT_ID": 64913,
    "ELEMENT_SET_NO": 999,
    "REV_AT_EPOCH": 1776,
    "BSTAR": 0.0024044,
    "MEAN_MOTION_DOT": 0.00097113,
    "MEAN_MOTION_DDOT": 0.0,
    "TLE_LINE1": "1 64913U 25157K   25314.64616289  .00097113  00000+0  24044-2 0  9996",
    "TLE_LINE2": "2 64913  53.1563 184.5858 0001528  98.1491 261.9687 15.39652356 17760",
    "COMMENT": "Grouped by shell and plane from TLE"
  },
  {
    "OBJECT_NAME": "STARLINK-34571",
    "OBJECT_ID": "25157L",
    "EPOCH": "2025-11-10T23:04:28.399584",
    "MEAN_MOTION": 15.3965953,
    "ECCENTRICITY": 0.0001826,
    "INCLINATION": 53.1592,
    "RA_OF_ASC_NODE": 182.9973,
    "ARG_OF_PERICENTER": 311.7157,
    "MEAN_ANOMALY": 48.3692,
    "EPHEMERIS_TYPE": 0,
    "CLASSIFICATION_TYPE": "U",
    "NORAD_CAT_ID": 64914,
    "ELEMENT_SET_NO": 999,
    "REV_AT_EPOCH": 1781,
    "BSTAR": 0.001182,
    "MEAN_MOTION_DOT": 0.00047237,
    "MEAN_MOTION_DDOT": 0.0,
    "TLE_LINE1": "1 64914U 25157L   25314.96143981  .00047237  00000+0  11820-2 0  9996",
    "TLE_LINE2": "2 64914  53.1592 182.9973 0001826 311.7157  48.3692 15.39659530 17817",
    "COMMENT": "Grouped by shell and plane from TLE"
  },
  {
    "OBJECT_NAME": "STARLINK-34636",
    "OBJECT_ID": "25157M",
    "EPOCH": "2025-11-11T05:05:00.766752",
    "MEAN_MOTION": 15.39647501,
    "ECCENTRICITY": 0.0001035,
    "INCLINATION": 53.1552,
    "RA_OF_ASC_NODE": 181.7149,
    "ARG_OF_PERICENTER": 110.8899,
    "MEAN_ANOMALY": 249.2216,
    "EPHEMERIS_TYPE": 0,
    "CLASSIFICATION_TYPE": "U",
    "NORAD_CAT_ID": 64915,
    "ELEMENT_SET_NO": 999,
    "REV_AT_EPOCH": 1790,
    "BSTAR": 0.0013863,
    "MEAN_MOTION_DOT": 0.00055506,
    "MEAN_MOTION_DDOT": 0.0,
    "TLE_LINE1": "1 64915U 25157M   25315.21181443  .00055506  00000+0  13863-2 0  9998",
    "TLE_LINE2": "2 64915  53.1552 181.7149 0001035 110.8899 249.2216 15.39647501 17908",
    "COMMENT": "Grouped by shell and plane from TLE"
  },
  {
    "OBJECT_NAME": "STARLINK-34695",
    "OBJECT_ID": "25157N",
    "EPOCH": "2025-11-11T00:17:53.646144",
    "MEAN_MOTION": 15.39682171,
    "ECCENTRICITY": 7.4e-05,
    "INCLINATION": 53.158,
    "RA_OF_ASC_NODE": 182.6028,
    "ARG_OF_PERICENTER": 135.647,
    "MEAN_ANOMALY": 224.4594,
    "EPHEMERIS_TYPE": 0,
    "CLASSIFICATION_TYPE": "U",
    "NORAD_CAT_ID": 64916,
    "ELEMENT_SET_NO": 999,
    "REV_AT_EPOCH": 1787,
    "BSTAR": 0.0017485,
    "MEAN_MOTION_DOT": 0.00070329,
    "MEAN_MOTION_DDOT": 0.0,
    "TLE_LINE1": "1 64916U 25157N   25315.01242646  .00070329  00000+0  17485-2 0  9994",
    "TLE_LINE2": "2 64916  53.1580 182.6028 0000740 135.6470 224.4594 15.39682171 17870",
    "COMMENT": "Grouped by shell and plane from TLE"
  }
]